RADARSAT-2              
1 32382U 07061A   26190.00866740 -.00000199  00000+0 -60237-4 0  9993
2 32382  98.5786 196.6293 0001304  84.7106 275.4225 14.29981404969073
